*******************************************************************************
Ephemeris / WWW_USER Fri Mar  7 10:55:56 2025 Pasadena, USA      / Horizons    
*******************************************************************************
Target body name: (2018 SL3)                      {source: JPL#9}
Center body name: Earth (399)                     {source: DE441}
Center-site name: Mauna Kea
*******************************************************************************
Start time      : A.D. 2018-Aug-09 05:04:00.0000 UT      
Stop  time      : A.D. 2018-Aug-09 15:50:00.0000 UT      
Step-size       : 1 minutes
*******************************************************************************
Target pole/equ : undefined
Target radii    : undefined                                                    
Center geodetic : 204.5278, 19.8260847, 4.21024   {E-lon(deg),Lat(deg),Alt(km)}
Center cylindric: 204.5278, 6006.35451, 2151.0229 {E-lon(deg),Dxy(km),Dz(km)}
Center pole/equ : ITRF93                          {East-longitude positive}
Center radii    : 6378.137, 6378.137, 6356.752 km {Equator_a, b, pole_c}       
Target primary  : Sun
Vis. interferer : MOON (R_eq= 1737.400) km        {source: DE441}
Rel. light bend : Sun                             {source: DE441}
Rel. lght bnd GM: 1.3271E+11 km^3/s^2                                          
Small-body perts: Yes                             {source: SB441-N16}
Atmos refraction: NO (AIRLESS)
RA format       : HMS
Time format     : CAL 
Calendar mode   : Mixed Julian/Gregorian
RTS-only print  : NO       
EOP file        : eop.250306.p250602                                           
EOP coverage    : DATA-BASED 1962-JAN-20 TO 2025-MAR-06. PREDICTS-> 2025-JUN-01
Units conversion: 1 au= 149597870.700 km, c= 299792.458 km/s, 1 day= 86400.0 s 
Table cut-offs 1: Elevation (-90.0deg=NO ),Airmass (>38.000=NO), Daylight (YES)
Table cut-offs 2: Solar elongation (  0.0,180.0=NO ),Local Hour Angle( 0.0=NO )
Table cut-offs 3: RA/DEC angular rate (     0.0=NO )                           
*******************************************************************************
Initial IAU76/J2000 heliocentric ecliptic osculating elements (au, days, deg.):
  EPOCH=  2458395.5 ! 2018-Oct-04.00 (TDB)         Residual RMS= .22865        
   EC= .523832704749462    QR= .7523817427125933   TP= 2458455.4342692108      
   OM= 5.37828463666876    W=  89.37669799750542   IN= 4.07069530013935        
  Equivalent ICRF heliocentric cartesian coordinates (au, au/d):
   X= 1.077301312774806E+00  Y= 1.718701187822678E-01  Z= 8.135917115484240E-02
  VX=-1.117713770282307E-02 VY= 1.338322199759621E-02 VZ= 7.048365308861806E-03
Asteroid physical parameters (km, seconds, rotational period in hours):        
   GM= n.a.                RAD= n.a.               ROTPER= n.a.                
   H= 24.5                 G= .150                 B-V= n.a.                   
                           ALBEDO= n.a.            STYP= n.a.                  
*******************************************************************************
 Date__(UT)__HR:MN     R.A._________(ICRF)_________DEC
******************************************************
$$SOE
 2018-Aug-09 15:19 Nm  00 26 29.734578 -02 12 51.19125
 2018-Aug-09 15:20 Nm  00 26 29.766185 -02 12 50.98077
 2018-Aug-09 15:21 Nm  00 26 29.797799 -02 12 50.77028
 2018-Aug-09 15:22 Nm  00 26 29.829418 -02 12 50.55978
 2018-Aug-09 15:23 Nm  00 26 29.861044 -02 12 50.34927
 2018-Aug-09 15:24 Nm  00 26 29.892677 -02 12 50.13876
 2018-Aug-09 15:25 Nm  00 26 29.924316 -02 12 49.92825
 2018-Aug-09 15:26 Nm  00 26 29.955961 -02 12 49.71773
 2018-Aug-09 15:27 Nm  00 26 29.987613 -02 12 49.50720
 2018-Aug-09 15:28 Nm  00 26 30.019272 -02 12 49.29667
 2018-Aug-09 15:29 Nm  00 26 30.050938 -02 12 49.08613
 2018-Aug-09 15:30 Nm  00 26 30.082610 -02 12 48.87559
 2018-Aug-09 15:31 Nm  00 26 30.114290 -02 12 48.66503
 2018-Aug-09 15:32 Nm  00 26 30.145976 -02 12 48.45448
 2018-Aug-09 15:33 Nm  00 26 30.177669 -02 12 48.24392
 2018-Aug-09 15:34 Nm  00 26 30.209369 -02 12 48.03335
 2018-Aug-09 15:35 Nm  00 26 30.241077 -02 12 47.82278
 2018-Aug-09 15:36 Nm  00 26 30.272791 -02 12 47.61220
 2018-Aug-09 15:37 Nm  00 26 30.304513 -02 12 47.40161
 2018-Aug-09 15:38 Cm  00 26 30.336242 -02 12 47.19102
 2018-Aug-09 15:39 Cm  00 26 30.367979 -02 12 46.98043
 2018-Aug-09 15:40 Cm  00 26 30.399723 -02 12 46.76983
 2018-Aug-09 15:41 Cm  00 26 30.431474 -02 12 46.55922
 2018-Aug-09 15:42 Cm  00 26 30.463233 -02 12 46.34861
 2018-Aug-09 15:43 Cm  00 26 30.495000 -02 12 46.13799
 2018-Aug-09 15:44 Cm  00 26 30.526774 -02 12 45.92736
 2018-Aug-09 15:45 Cm  00 26 30.558556 -02 12 45.71673
 2018-Aug-09 15:46 Cm  00 26 30.590346 -02 12 45.50610
 2018-Aug-09 15:47 Cm  00 26 30.622143 -02 12 45.29546
 2018-Aug-09 15:48 Cm  00 26 30.653949 -02 12 45.08481
 2018-Aug-09 15:49 Cm  00 26 30.685762 -02 12 44.87416
 2018-Aug-09 15:50 Cm  00 26 30.717584 -02 12 44.66351
